{
    "links": {
        "self": "http://www.neowsapp.com/rest/v1/neo/3760338?api_key=iIulBulltgU6a56xZRHN4H3l9WmuAYTsLGpBGhQ2"
    },
    "id": "3760338",
    "neo_reference_id": "3760338",
    "name": "(2016 TO2)",
    "designation": "2016 TO2",
    "nasa_jpl_url": "http://ssd.jpl.nasa.gov/sbdb.cgi?sstr=3760338",
    "absolute_magnitude_h": 22.1,
    "estimated_diameter": {
        "kilometers": {
            "estimated_diameter_min": 0.1010543415,
            "estimated_diameter_max": 0.2259643771
        },
        "meters": {
            "estimated_diameter_min": 101.054341542,
            "estimated_diameter_max": 225.9643771094
        },
        "miles": {
            "estimated_diameter_min": 0.0627922373,
            "estimated_diameter_max": 0.140407711
        },
        "feet": {
            "estimated_diameter_min": 331.5431259047,
            "estimated_diameter_max": 741.3529669956
        }
    },
    "is_potentially_hazardous_asteroid": false,
    "close_approach_data": [
        {
            "close_approach_date": "1981-09-24",
            "close_approach_date_full": "1981-Sep-24 19:20",
            "epoch_date_close_approach": 370207200000,
            "relative_velocity": {
                "kilometers_per_second": "6.1232056401",
                "kilometers_per_hour": "22043.5403044425",
                "miles_per_hour": "13696.998696391"
            },
            "miss_distance": {
                "astronomical": "0.2836964935",
                "lunar": "110.3579359715",
                "kilometers": "42440391.154068845",
                "miles": "26371236.212666261"
            },
            "orbiting_body": "Earth"
        },
        {
            "close_approach_date": "2005-09-10",
            "close_approach_date_full": "2005-Sep-10 14:13",
            "epoch_date_close_approach": 1126361580000,
            "relative_velocity": {
                "kilometers_per_second": "5.9557752753",
                "kilometers_per_hour": "21440.7909912279",
                "miles_per_hour": "13322.4737134104"
            },
            "miss_distance": {
                "astronomical": "0.3705621628",
                "lunar": "144.1486813292",
                "kilometers": "55435310.257473236",
                "miles": "34445904.5161772168"
            },
            "orbiting_body": "Earth"
        },
        {
            "close_approach_date": "2016-10-12",
            "close_approach_date_full": "2016-Oct-12 16:16",
            "epoch_date_close_approach": 1476288960000,
            "relative_velocity": {
                "kilometers_per_second": "6.0602361487",
                "kilometers_per_hour": "21816.8501351561",
                "miles_per_hour": "13556.1422409252"
            },
            "miss_distance": {
                "astronomical": "0.2894382192",
                "lunar": "112.5914672688",
                "kilometers": "43299341.088913104",
                "miles": "26904962.9529406752"
            },
            "orbiting_body": "Earth"
        },
        {
            "close_approach_date": "2029-08-23",
            "close_approach_date_full": "2029-Aug-23 20:16",
            "epoch_date_close_approach": 1882210560000,
            "relative_velocity": {
                "kilometers_per_second": "5.447827643",
                "kilometers_per_hour": "19612.1795147193",
                "miles_per_hour": "12186.2456545765"
            },
            "miss_distance": {
                "astronomical": "0.4796907195",
                "lunar": "186.5996898855",
                "kilometers": "71760709.895967465",
                "miles": "44590037.461842417"
            },
            "orbiting_body": "Earth"
        },
        {
            "close_approach_date": "2040-09-30",
            "close_approach_date_full": "2040-Sep-30 05:10",
            "epoch_date_close_approach": 2232594600000,
            "relative_velocity": {
                "kilometers_per_second": "6.1195330496",
                "kilometers_per_hour": "22030.3189784382",
                "miles_per_hour": "13688.7834785745"
            },
            "miss_distance": {
                "astronomical": "0.2655508883",
                "lunar": "103.2992955487",
                "kilometers": "39725847.266287921",
                "miles": "24684496.8559424698"
            },
            "orbiting_body": "Earth"
        }
    ],
    "orbital_data": {
        "orbit_id": "9",
        "orbit_determination_date": "2017-04-06 08:23:26",
        "first_observation_date": "2016-10-02",
        "last_observation_date": "2016-12-06",
        "data_arc_in_days": 65,
        "observations_used": 43,
        "orbit_uncertainty": "5",
        "minimum_orbit_intersection": ".263461",
        "jupiter_tisserand_invariant": "4.168",
        "epoch_osculation": "2459000.5",
        "eccentricity": ".2525595581251945",
        "semi_major_axis": "1.683628049739706",
        "inclination": "11.86825668683101",
        "ascending_node_longitude": "183.332284047897",
        "orbital_period": "797.9352585822744",
        "perihelion_distance": "1.258411693450263",
        "perihelion_argument": "196.4495879032386",
        "aphelion_distance": "2.108844406029149",
        "perihelion_time": "2459263.838358118909",
        "mean_anomaly": "241.1911017803052",
        "mean_motion": ".4511644223362524",
        "equinox": "J2000",
        "orbit_class": {
            "orbit_class_type": "AMO",
            "orbit_class_description": "Near-Earth asteroid orbits similar to that of 1221 Amor",
            "orbit_class_range": "1.017 AU < q (perihelion) < 1.3 AU"
        }
    },
    "is_sentry_object": false
}